{
    "links": {
        "self": "http://www.neowsapp.com/rest/v1/neo/3335555?api_key=iIulBulltgU6a56xZRHN4H3l9WmuAYTsLGpBGhQ2"
    },
    "id": "3335555",
    "neo_reference_id": "3335555",
    "name": "(2006 LM)",
    "designation": "2006 LM",
    "nasa_jpl_url": "http://ssd.jpl.nasa.gov/sbdb.cgi?sstr=3335555",
    "absolute_magnitude_h": 25.0,
    "estimated_diameter": {
        "kilometers": {
            "estimated_diameter_min": 0.02658,
            "estimated_diameter_max": 0.0594346868
        },
        "meters": {
            "estimated_diameter_min": 26.58,
            "estimated_diameter_max": 59.4346868419
        },
        "miles": {
            "estimated_diameter_min": 0.0165160412,
            "estimated_diameter_max": 0.0369309908
        },
        "feet": {
            "estimated_diameter_min": 87.2047272,
            "estimated_diameter_max": 194.9956979785
        }
    },
    "is_potentially_hazardous_asteroid": false,
    "close_approach_data": [
        {
            "close_approach_date": "2006-06-07",
            "close_approach_date_full": "2006-Jun-07 10:26",
            "epoch_date_close_approach": 1149675960000,
            "relative_velocity": {
                "kilometers_per_second": "9.1121053051",
                "kilometers_per_hour": "32803.5790985332",
                "miles_per_hour": "20382.8683570858"
            },
            "miss_distance": {
                "astronomical": "0.0094549631",
                "lunar": "3.6779806459",
                "kilometers": "1414442.340688597",
                "miles": "878893.7156607586"
            },
            "orbiting_body": "Moon"
        },
        {
            "close_approach_date": "2006-06-07",
            "close_approach_date_full": "2006-Jun-07 16:33",
            "epoch_date_close_approach": 1149697980000,
            "relative_velocity": {
                "kilometers_per_second": "8.9111152257",
                "kilometers_per_hour": "32080.0148124385",
                "miles_per_hour": "19933.2736483177"
            },
            "miss_distance": {
                "astronomical": "0.009562125",
                "lunar": "3.719666625",
                "kilometers": "1430473.53267375",
                "miles": "888855.03644775"
            },
            "orbiting_body": "Earth"
        }
    ],
    "orbital_data": {
        "orbit_id": "9",
        "orbit_determination_date": "2017-04-06 09:08:29",
        "first_observation_date": "2006-06-03",
        "last_observation_date": "2006-06-07",
        "data_arc_in_days": 4,
        "observations_used": 30,
        "orbit_uncertainty": "7",
        "minimum_orbit_intersection": ".00833128",
        "jupiter_tisserand_invariant": "4.066",
        "epoch_osculation": "2459000.5",
        "eccentricity": ".432531835809049",
        "semi_major_axis": "1.712133218799044",
        "inclination": "6.666948339817937",
        "ascending_node_longitude": "74.24996272960654",
        "orbital_period": "818.2853146123807",
        "perihelion_distance": ".9715810945222372",
        "perihelion_argument": "215.7833491310305",
        "aphelion_distance": "2.452685343075851",
        "perihelion_time": "2458833.715987681581",
        "mean_anomaly": "73.37568371622645",
        "mean_motion": ".439944348959178",
        "equinox": "J2000",
        "orbit_class": {
            "orbit_class_type": "APO",
            "orbit_class_description": "Near-Earth asteroid orbits which cross the Earth’s orbit similar to that of 1862 Apollo",
            "orbit_class_range": "a (semi-major axis) > 1.0 AU; q (perihelion) < 1.017 AU"
        }
    },
    "is_sentry_object": false
}